[{"OBJECT_NAME":"GSAT-31","OBJECT_ID":"2019-007B","EPOCH":"2026-05-22T04:06:20.169792","MEAN_MOTION":1.00274346,"ECCENTRICITY":0.00021783,"INCLINATION":0.0477,"RA_OF_ASC_NODE":104.7472,"ARG_OF_PERICENTER":243.2222,"MEAN_ANOMALY":1.3125,"EPHEMERIS_TYPE":0,"CLASSIFICATION_TYPE":"U","NORAD_CAT_ID":44035,"ELEMENT_SET_NO":999,"REV_AT_EPOCH":2670,"BSTAR":0,"MEAN_MOTION_DOT":1.17e-06,"MEAN_MOTION_DDOT":0},{"OBJECT_NAME":"NUSANTARA SATU","OBJECT_ID":"2019-009A","EPOCH":"2026-05-21T23:26:21.791904","MEAN_MOTION":1.00270089,"ECCENTRICITY":0.00036933,"INCLINATION":0.0407,"RA_OF_ASC_NODE":124.9957,"ARG_OF_PERICENTER":340.4578,"MEAN_ANOMALY":271.7629,"EPHEMERIS_TYPE":0,"CLASSIFICATION_TYPE":"U","NORAD_CAT_ID":44048,"ELEMENT_SET_NO":999,"REV_AT_EPOCH":2650,"BSTAR":0,"MEAN_MOTION_DOT":-2.43e-06,"MEAN_MOTION_DDOT":0},{"OBJECT_NAME":"ZHONGXING-6C","OBJECT_ID":"2019-012A","EPOCH":"2026-05-22T06:12:31.544352","MEAN_MOTION":1.0026982,"ECCENTRICITY":0.0012616,"INCLINATION":0.1003,"RA_OF_ASC_NODE":79.7151,"ARG_OF_PERICENTER":324.2731,"MEAN_ANOMALY":59.455,"EPHEMERIS_TYPE":0,"CLASSIFICATION_TYPE":"U","NORAD_CAT_ID":44067,"ELEMENT_SET_NO":999,"REV_AT_EPOCH":2648,"BSTAR":0,"MEAN_MOTION_DOT":-3.43e-06,"MEAN_MOTION_DDOT":0},{"OBJECT_NAME":"WGS 10 (USA 291)","OBJECT_ID":"2019-014A","EPOCH":"2026-05-21T23:01:36.009984","MEAN_MOTION":1.00271588,"ECCENTRICITY":4.718e-05,"INCLINATION":0.0148,"RA_OF_ASC_NODE":336.8942,"ARG_OF_PERICENTER":351.9401,"MEAN_ANOMALY":316.4641,"EPHEMERIS_TYPE":0,"CLASSIFICATION_TYPE":"U","NORAD_CAT_ID":44071,"ELEMENT_SET_NO":999,"REV_AT_EPOCH":2635,"BSTAR":0,"MEAN_MOTION_DOT":3.9e-07,"MEAN_MOTION_DDOT":0},{"OBJECT_NAME":"TIANLIAN 2-01","OBJECT_ID":"2019-017A","EPOCH":"2026-05-22T04:14:41.867808","MEAN_MOTION":1.00271142,"ECCENTRICITY":8.373e-05,"INCLINATION":0.4747,"RA_OF_ASC_NODE":83.0173,"ARG_OF_PERICENTER":303.4198,"MEAN_ANOMALY":354.0758,"EPHEMERIS_TYPE":0,"CLASSIFICATION_TYPE":"U","NORAD_CAT_ID":44076,"ELEMENT_SET_NO":999,"REV_AT_EPOCH":2638,"BSTAR":0,"MEAN_MOTION_DOT":-1.15e-06,"MEAN_MOTION_DDOT":0},{"OBJECT_NAME":"ARABSAT-6A","OBJECT_ID":"2019-021A","EPOCH":"2026-05-22T05:44:04.271712","MEAN_MOTION":1.0026785,"ECCENTRICITY":0.00019141,"INCLINATION":0.0553,"RA_OF_ASC_NODE":14.0681,"ARG_OF_PERICENTER":334.3157,"MEAN_ANOMALY":8,"EPHEMERIS_TYPE":0,"CLASSIFICATION_TYPE":"U","NORAD_CAT_ID":44186,"ELEMENT_SET_NO":999,"REV_AT_EPOCH":2589,"BSTAR":0,"MEAN_MOTION_DOT":1.45e-06,"MEAN_MOTION_DDOT":0},{"OBJECT_NAME":"BEIDOU-3 IGSO-1","OBJECT_ID":"2019-023A","EPOCH":"2026-05-12T18:25:31.496160","MEAN_MOTION":1.00250503,"ECCENTRICITY":0.00238565,"INCLINATION":58.6468,"RA_OF_ASC_NODE":38.0171,"ARG_OF_PERICENTER":234.309,"MEAN_ANOMALY":349.8662,"EPHEMERIS_TYPE":0,"CLASSIFICATION_TYPE":"U","NORAD_CAT_ID":44204,"ELEMENT_SET_NO":999,"REV_AT_EPOCH":685,"BSTAR":0,"MEAN_MOTION_DOT":-2.27e-06,"MEAN_MOTION_DDOT":0},{"OBJECT_NAME":"BEIDOU-2 G8","OBJECT_ID":"2019-027A","EPOCH":"2026-05-22T06:16:31.160928","MEAN_MOTION":1.00269764,"ECCENTRICITY":0.00106372,"INCLINATION":1.5943,"RA_OF_ASC_NODE":74.4503,"ARG_OF_PERICENTER":280.6002,"MEAN_ANOMALY":123.4884,"EPHEMERIS_TYPE":0,"CLASSIFICATION_TYPE":"U","NORAD_CAT_ID":44231,"ELEMENT_SET_NO":999,"REV_AT_EPOCH":2582,"BSTAR":0,"MEAN_MOTION_DOT":-2.55e-06,"MEAN_MOTION_DDOT":0},{"OBJECT_NAME":"YAMAL 601","OBJECT_ID":"2019-031A","EPOCH":"2026-05-22T05:49:18.770304","MEAN_MOTION":1.0027245,"ECCENTRICITY":0.0002484,"INCLINATION":0.017,"RA_OF_ASC_NODE":331.7391,"ARG_OF_PERICENTER":85.8228,"MEAN_ANOMALY":318.646,"EPHEMERIS_TYPE":0,"CLASSIFICATION_TYPE":"U","NORAD_CAT_ID":44307,"ELEMENT_SET_NO":999,"REV_AT_EPOCH":2566,"BSTAR":0,"MEAN_MOTION_DOT":1.12e-06,"MEAN_MOTION_DDOT":0},{"OBJECT_NAME":"AT&T T-16","OBJECT_ID":"2019-034A","EPOCH":"2026-05-22T05:06:37.615104","MEAN_MOTION":1.00273184,"ECCENTRICITY":7.539e-05,"INCLINATION":0.0339,"RA_OF_ASC_NODE":86.0722,"ARG_OF_PERICENTER":172.9008,"MEAN_ANOMALY":316.6757,"EPHEMERIS_TYPE":0,"CLASSIFICATION_TYPE":"U","NORAD_CAT_ID":44333,"ELEMENT_SET_NO":999,"REV_AT_EPOCH":2537,"BSTAR":0,"MEAN_MOTION_DOT":-1.24e-06,"MEAN_MOTION_DDOT":0},{"OBJECT_NAME":"EUTELSAT 7C","OBJECT_ID":"2019-034B","EPOCH":"2026-05-22T05:37:19.917984","MEAN_MOTION":1.00271881,"ECCENTRICITY":0.00032072,"INCLINATION":0.0742,"RA_OF_ASC_NODE":176.3102,"ARG_OF_PERICENTER":224.2704,"MEAN_ANOMALY":290.6283,"EPHEMERIS_TYPE":0,"CLASSIFICATION_TYPE":"U","NORAD_CAT_ID":44334,"ELEMENT_SET_NO":999,"REV_AT_EPOCH":657,"BSTAR":0,"MEAN_MOTION_DOT":4e-07,"MEAN_MOTION_DDOT":0},{"OBJECT_NAME":"BEIDOU-3 IGSO-2","OBJECT_ID":"2019-035A","EPOCH":"2026-05-19T15:14:57.732288","MEAN_MOTION":1.00275192,"ECCENTRICITY":0.00395304,"INCLINATION":55.2397,"RA_OF_ASC_NODE":159.1126,"ARG_OF_PERICENTER":216.47,"MEAN_ANOMALY":210.4277,"EPHEMERIS_TYPE":0,"CLASSIFICATION_TYPE":"U","NORAD_CAT_ID":44337,"ELEMENT_SET_NO":999,"REV_AT_EPOCH":2538,"BSTAR":0,"MEAN_MOTION_DOT":-7.9e-07,"MEAN_MOTION_DDOT":0},{"OBJECT_NAME":"COSMOS 2539","OBJECT_ID":"2019-048A","EPOCH":"2026-05-22T05:38:42.287424","MEAN_MOTION":1.00274328,"ECCENTRICITY":7.182e-05,"INCLINATION":0.0382,"RA_OF_ASC_NODE":103.0091,"ARG_OF_PERICENTER":350.5947,"MEAN_ANOMALY":242.9568,"EPHEMERIS_TYPE":0,"CLASSIFICATION_TYPE":"U","NORAD_CAT_ID":44457,"ELEMENT_SET_NO":999,"REV_AT_EPOCH":2496,"BSTAR":0,"MEAN_MOTION_DOT":7.3e-07,"MEAN_MOTION_DDOT":0},{"OBJECT_NAME":"EDRS-C","OBJECT_ID":"2019-049A","EPOCH":"2026-05-22T06:16:01.208640","MEAN_MOTION":1.00271792,"ECCENTRICITY":8.72e-05,"INCLINATION":0.0015,"RA_OF_ASC_NODE":258.9266,"ARG_OF_PERICENTER":151.962,"MEAN_ANOMALY":65.5064,"EPHEMERIS_TYPE":0,"CLASSIFICATION_TYPE":"U","NORAD_CAT_ID":44475,"ELEMENT_SET_NO":999,"REV_AT_EPOCH":2495,"BSTAR":0,"MEAN_MOTION_DOT":-2.7e-06,"MEAN_MOTION_DDOT":0},{"OBJECT_NAME":"INTELSAT 39 (IS-39)","OBJECT_ID":"2019-049B","EPOCH":"2026-05-22T01:09:38.630592","MEAN_MOTION":1.00273778,"ECCENTRICITY":5.152e-05,"INCLINATION":0.0174,"RA_OF_ASC_NODE":301.2683,"ARG_OF_PERICENTER":341.6632,"MEAN_ANOMALY":36.1117,"EPHEMERIS_TYPE":0,"CLASSIFICATION_TYPE":"U","NORAD_CAT_ID":44476,"ELEMENT_SET_NO":999,"REV_AT_EPOCH":2486,"BSTAR":0,"MEAN_MOTION_DOT":2.5e-07,"MEAN_MOTION_DDOT":0},{"OBJECT_NAME":"AMOS-17","OBJECT_ID":"2019-050A","EPOCH":"2026-05-22T05:40:12.143424","MEAN_MOTION":1.00273504,"ECCENTRICITY":0.00011483,"INCLINATION":0.0177,"RA_OF_ASC_NODE":311.9528,"ARG_OF_PERICENTER":124.524,"MEAN_ANOMALY":265.4358,"EPHEMERIS_TYPE":0,"CLASSIFICATION_TYPE":"U","NORAD_CAT_ID":44479,"ELEMENT_SET_NO":999,"REV_AT_EPOCH":2492,"BSTAR":0,"MEAN_MOTION_DOT":1.01e-06,"MEAN_MOTION_DDOT":0},{"OBJECT_NAME":"AEHF-5 (USA 292)","OBJECT_ID":"2019-051A","EPOCH":"2026-05-22T03:29:21.612192","MEAN_MOTION":1.00273215,"ECCENTRICITY":0.00679284,"INCLINATION":1.4783,"RA_OF_ASC_NODE":334.2804,"ARG_OF_PERICENTER":1.6923,"MEAN_ANOMALY":49.2216,"EPHEMERIS_TYPE":0,"CLASSIFICATION_TYPE":"U","NORAD_CAT_ID":44481,"ELEMENT_SET_NO":999,"REV_AT_EPOCH":2500,"BSTAR":0,"MEAN_MOTION_DOT":-2.67e-06,"MEAN_MOTION_DDOT":0}]