GSAT-31                 
1 44035U 19007B   26142.17106678  .00000117  00000+0  00000+0 0  9991
2 44035   0.0477 104.7472 0002178 243.2222   1.3125  1.00274346 26700
NUSANTARA SATU          
1 44048U 19009A   26141.97664111 -.00000243  00000+0  00000+0 0  9996
2 44048   0.0407 124.9957 0003693 340.4578 271.7629  1.00270089 26506
ZHONGXING-6C            
1 44067U 19012A   26142.25869843 -.00000343  00000+0  00000+0 0  9993
2 44067   0.1003  79.7151 0012616 324.2731  59.4550  1.00269820 26481
WGS 10 (USA 291)        
1 44071U 19014A   26141.95944456  .00000039  00000+0  00000+0 0  9991
2 44071   0.0148 336.8942 0000471 351.9401 316.4641  1.00271588 26354
TIANLIAN 2-01           
1 44076U 19017A   26142.17687347 -.00000115  00000+0  00000+0 0  9993
2 44076   0.4747  83.0173 0000837 303.4198 354.0758  1.00271142 26382
ARABSAT-6A              
1 44186U 19021A   26142.23893833  .00000145  00000+0  00000+0 0  9998
2 44186   0.0553  14.0681 0001914 334.3157   8.0000  1.00267850 25890
BEIDOU-3 IGSO-1         
1 44204U 19023A   26132.76772565 -.00000227  00000+0  00000+0 0  9998
2 44204  58.6468  38.0171 0023856 234.3090 349.8662  1.00250503  6851
BEIDOU-2 G8             
1 44231U 19027A   26142.26147177 -.00000255  00000+0  00000+0 0  9994
2 44231   1.5943  74.4503 0010637 280.6002 123.4884  1.00269764 25828
YAMAL 601               
1 44307U 19031A   26142.24257836  .00000112  00000+0  00000+0 0  9996
2 44307   0.0170 331.7391 0002484  85.8228 318.6460  1.00272450 25664
AT&T T-16               
1 44333U 19034A   26142.21293536 -.00000124  00000+0  00000+0 0  9996
2 44333   0.0339  86.0722 0000753 172.9008 316.6757  1.00273184 25379
EUTELSAT 7C             
1 44334U 19034B   26142.23425831  .00000040  00000+0  00000+0 0  9990
2 44334   0.0742 176.3102 0003207 224.2704 290.6283  1.00271881  6572
BEIDOU-3 IGSO-2         
1 44337U 19035A   26139.63539042 -.00000079  00000+0  00000+0 0  9997
2 44337  55.2397 159.1126 0039530 216.4700 210.4277  1.00275192 25387
COSMOS 2539             
1 44457U 19048A   26142.23521166  .00000073  00000+0  00000+0 0  9995
2 44457   0.0382 103.0091 0000718 350.5947 242.9568  1.00274328 24966
EDRS-C                  
1 44475U 19049A   26142.26112510 -.00000270  00000+0  00000+0 0  9998
2 44475   0.0015 258.9266 0000872 151.9620  65.5064  1.00271792 24956
INTELSAT 39 (IS-39)     
1 44476U 19049B   26142.04836378  .00000025  00000+0  00000+0 0  9997
2 44476   0.0174 301.2683 0000515 341.6632  36.1117  1.00273778 24862
AMOS-17                 
1 44479U 19050A   26142.23625166  .00000101  00000+0  00000+0 0  9999
2 44479   0.0177 311.9528 0001148 124.5240 265.4358  1.00273504 24928
AEHF-5 (USA 292)        
1 44481U 19051A   26142.14538903 -.00000267  00000+0  00000+0 0  9999
2 44481   1.4783 334.2804 0067928   1.6923  49.2216  1.00273215 25005
